#dP2022  6 10 12  0  0.00000000      96 __u+U ITR00 EXT  IAC
## 2213 475200.00000000   900.00000000 59740 0.5000000000000
+  115   C06C07C08C09C11C12C13C14C16C19C20C21C22C23C24C25C26
+        C27C28C29C30C32C33C34C35C36C37C38C39C40C41C42C43C44
+        C45C46E01E02E03E04E05E07E08E09E10E11E12E13E14E15E18
+        E19E21E24E25E26E27E30E31E33E34E36G01G02G03G04G05G06
+        G07G08G09G10G11G12G13G14G15G16G17G18G19G20G21G22G23
+        G24G25G26G27G28G29G30G31G32J02J03R01R02R03R04R05R07
+        R08R09R11R12R13R14R15R17R18R19R20R21R24  0  0  0  0
++         8 10 10 10  8  7 10  9  8  9  6  7  9  8  7  8  7
++         9  9 10  9  9  8  9  7  8  9 10 10 10  9  9  9  8
++         8 10  8  6  8  7  6  8  8  5 12  7  9  6  7  7  8
++         6  8  7  8  8  7  8  7  6  7  8  6  7  6  7  6  6
++         7  6  7  7  6  8  7  7  9  7  8  7  7 10  8  8  9
++         8  9  7  6  9  8  9  6  6  7  7  7  8  8  9  8  7
++         8  7  6  7  7  8  7  9  8  7  8  9  8  0  0  0  0
%c M  cc GPS ccc cccc cccc cccc cccc ccccc ccccc ccccc ccccc
%c cc cc ccc ccc cccc cccc cccc cccc ccccc ccccc ccccc ccccc
%f  0.0000000  0.000000000  0.00000000000  0.000000000000000
%f  0.0000000  0.000000000  0.00000000000  0.000000000000000
%i    0    0    0    0      0      0      0      0         0
%i    0    0    0    0      0      0      0      0         0
/* IAC                                ULTRA-RAPID PREDICTION
/* S/V CLOCKS ARE ALIGNED TO GNSS TIME                      
/* G:C1WC2W R:C1PC2P E:C1XC5X C:C2IC6I J:C1CC2S             
/* PCV:IGS14_2196 OL/AL:FES2004  NONE     YN ORB:CoN CLK:CoN
*  2022 06 11  8 15  0.00000000
PC06 -16672.759126  29224.224237 -25523.733684    166.314647
PC07  -6365.858629  40196.549432 -10716.603841   -284.151308
PC08  -1195.652676  22852.200137  35443.434929    356.987665
PC09 -10877.042936  28054.893631 -29357.961793   -872.544479
PC11  13915.196165   9094.246054  22476.037658    407.500638
PC12  -4642.222768  18365.648471  20513.482317   -600.639458
PC13   5027.453442  26293.604264  32776.254220     -7.168936
PC14  11737.108386  19323.644447 -16294.034801    499.524035
PC16 -20641.867928  28814.219621 -22851.698628    138.684930
PC19 -14996.053105  -9660.407524  21494.547524    859.478605
PC20  -7530.213651 -24938.414002  10071.543117   -954.146093
PC21  -5044.080963  26174.308638   8228.992347   -463.080135
PC22 -14125.502040  11822.080614  20956.685491   -965.043413
PC23  21253.334340  -2905.900912  17857.966555   -933.509502
PC24  13726.492175  19509.205617 -14503.502405   -971.207530
PC25  25584.293913  10669.752666   3303.589615   -723.572503
PC26  -3634.839835  16228.491896 -22421.426286    725.055290
PC27  13276.304999 -19641.307659 -14735.390103    737.189571
PC28  24565.293897 -13145.281520   1621.264015     77.212790
PC29 -21562.800790   -782.842868 -17709.919333    566.821697
PC30  -5652.922140 -15151.885497 -22752.220913    499.712128
PC32   4838.808394 -26228.676839  -8220.075290   -967.630117
PC33  15046.920184   9627.292096 -21425.527374   -969.055175
PC34   6667.740002  14612.770427  22804.526520   -383.410342
PC35 -24394.459862  13321.629191  -2700.453864    315.450796
PC36 -25213.045424 -11628.772770  -2764.479728   -967.463916
PC37   5316.850091 -15541.429203  22577.127404   -909.027529
PC38 -10135.938271  20950.408392  35192.521197      2.323178
PC39 -24210.878028  29585.173102 -17951.263413     34.959446
PC40 -11610.001039  37607.409191 -14910.712911    276.467407
PC41  14224.373074 -11405.782691 -21074.383033   -969.856351
PC42   6922.380732  25447.146419  -9040.597185   -961.868261
PC43  21197.403343   1524.634138  18060.053827   -918.868725
PC44 -12769.467881  20166.018501  14467.493547    688.666107
PC45 -21004.922567   3075.047890 -18097.605557    780.482555
PC46 -15119.432406 -19248.118962  13379.278152   -372.975679
PE01  13709.272339  26096.347851  -2699.564007   -493.975622
PE02 -13812.510801 -26048.967731   2534.709018    304.946850
PE03  -4523.246762 -21340.784339  20017.929214   -567.635052
PE04  17260.235861   3390.424426 -23795.321081  -1047.556277
PE05  11127.202714 -27081.200334   4383.154751   -173.214156
PE07 -20083.149018  16976.886092  13586.304029   -677.317898
PE08 -17247.594185  -3040.995905  23867.298634   -544.641822
PE09  19941.886257 -17170.982482 -13560.425192   -549.515809
PE10  29549.059833  -1576.082543   -792.405163   -518.951968
PE11  26376.200638  -7895.024379 -10864.435773   3386.942391
PE12  27836.370882   4831.329543   8787.249631     -5.076724
PE13 -26753.048451   7507.071591  10211.094873    429.223817
PE14 -18815.947352  -7242.372977 -23199.709032  -1811.180245
PE15 -27798.533029  -4833.439309  -8961.508852    740.106067
PE18  21423.526537  -8717.923330  13354.306794  -1342.956613
PE19   2392.782368  22846.029757 -18656.117264  -5406.538157
PE21   -382.926092  23250.604175 -18314.920679   -739.498263
PE24  15944.759712  -5688.404931  24271.373001   -664.485257
PE25    621.742757 -23102.126853  18500.966759   -577.174433
PE26  -8991.486708  15645.801587  23459.494113  -1249.446857
PE27 -15221.175315   6944.137565 -24414.226819   -319.502354
PE30 -20909.452555 -14228.380360 -15377.586725   -583.406033
PE31  20979.608887  13300.989191  16105.561850   -498.089520
PE33  12438.227027  14262.918034  22753.539260   -455.748808
PE34 -12672.006461 -14194.052588 -22685.636214   -521.587117
PE36   9995.692061 -15352.750892 -23252.482305   -386.497890
PG01 -14902.779669 -13355.455211 -17944.414789    343.687827
PG02  -8659.939905  14559.588176  21145.584583   -652.781277
PG03 -12815.057446 -23181.339601   2567.796977   -274.919959
PG04  -5518.918226 -16249.954229  20257.207364   -158.252165
PG05   3562.407627  23676.018075  11170.139266    -85.117026
PG06 -22374.729102   6518.397713  12877.266319    339.044752
PG07 -25622.933910  -6176.689045   5406.241550    321.896105
PG08   1137.053307 -21326.900401 -15602.794253    -71.678987
PG09 -14016.860684  -6502.853751  21537.240333   -329.362455
PG10  15600.943176   -963.296963 -21369.404675   -450.410835
PG11 -10155.074660  13129.403959  20725.023111    -15.936534
PG12   8864.986142  25088.201393  -1113.115324   -229.374237
PG13 -11285.622117  22016.408744  -9572.189678    327.886595
PG14 -16376.972775   -519.409954 -20920.729999   -111.266436
PG15   2361.637724  21262.249218 -15955.762472    -54.134274
PG16   3026.921422 -21410.425891  14834.744668   -508.102758
PG17 -19955.939565  10087.815124 -13939.319541    623.639301
PG18  25346.061068   6239.111427   5223.349424    145.369616
PG19 -20180.128456  15437.622497  -7597.632467    169.200493
PG20  -4548.520537  17952.873972  19121.672491    512.511585
PG21  -5305.811881 -14678.088008 -20946.805566    161.309503
PG22  18781.026228 -18046.589036  -4270.283934    273.915309
PG23  18002.453085  10129.592654 -16766.783679    -27.368519
PG24  11268.165184  14541.894908 -19592.879530    223.211462
PG25  16902.166719  17254.537818  11061.870275    335.968653
PG26   9873.703816 -13423.944183  20536.749333    211.614701
PG27  11743.986849 -23069.703189  -5129.200249    214.393763
PG28 -12178.591335   9255.011569 -21230.560946    340.463884
PG29  13263.726098   6939.257941  21891.998149   -522.903164
PG30 -26265.704286    770.224591  -4633.231770   -531.021399
PG31  21079.008190  -7906.930288  14320.214429   -181.337114
PG32  19417.504193 -12761.494016 -12542.669662   -148.449149
PJ02 -20543.101140  21393.980682 -25371.743238     -0.603076
PJ03 -29199.436779  29090.468426  14315.935808     -2.773606
PR01   6337.148236  16976.576238 -17940.095656      9.790341
PR02  11321.884585  -3140.219218 -22587.215701    520.985766
PR03   9431.940001 -19826.348162 -12891.829998     58.239139
PR04   2420.244846 -25106.976477   3809.610631    145.911617
PR05  -5897.340566 -16617.622566  18437.728449     94.430103
PR07  -9283.891294  20340.530088  12361.802545     36.276275
PR08  -2316.644178  25122.157322  -3789.207979    -65.620826
PR09 -19850.649280  -6265.804603 -14778.665536     59.888861
PR11   6720.856569  16378.859378 -18344.568802     36.557664
PR12  19180.075853  16707.239642  -1991.153909     18.817579
PR13  20091.869379   7419.284166  13840.085216    -23.460015
PR14   8634.796068  -7275.374353  22885.901027     25.291259
PR15  -7236.036933 -16833.368942  17771.381306     95.492033
PR17  20244.826666 -12207.389031  -9630.334132    533.934434
PR18   6026.985729 -12425.015890 -21427.105427    119.914166
PR19 -10032.785679  -7111.888847 -22354.846431   -192.291491
PR20 -23713.185464   3823.306342  -8648.344286    -72.397177
PR21 -19361.486718  12380.865934  11033.311703   -308.505334
PR24  23808.441445  -4628.213014   7930.711500     98.148617
EOF
